{
  "type": "FeatureCollection",
  "features": [
    {
      "type": "Feature",
      "properties": {
        "norad_id": 37928,
        "name": "FENGYUN 1C DEB",
        "group": "fengyun-1c-debris",
        "lat": -63.72210814159886,
        "lon": -123.6698859344249,
        "alt_km": 791.2212490888523,
        "timestamp": "2025-12-09T07:41:33.498522+00:00",
        "meta_object_name": "FENGYUN 1C DEB",
        "meta_object_id": "1999-025EPD",
        "meta_epoch": "2025-12-05T22:06:55.639584",
        "meta_mean_motion": 14.37064476,
        "meta_eccentricity": 0.0073466,
        "meta_inclination": 98.9156,
        "meta_ra_of_asc_node": 214.2722,
        "meta_arg_of_pericenter": 52.9241,
        "meta_mean_anomaly": 307.8631,
        "meta_ephemeris_type": 0,
        "meta_classification_type": "U",
        "meta_norad_cat_id": 37928,
        "meta_element_set_no": 999,
        "meta_rev_at_epoch": 81094,
        "meta_bstar": 0.0011316154,
        "meta_mean_motion_dot": 3.419e-05,
        "meta_mean_motion_ddot": 0,
        "tle_line1": "1 37928U 99025EPD 25339.92147731  .00003419  00000+0  11316-2 0  9990",
        "tle_line2": "2 37928  98.9156 214.2722 0073466  52.9241 307.8631 14.37064476810940"
      },
      "geometry": {
        "type": "Point",
        "coordinates": [
          -123.6698859344249,
          -63.72210814159886
        ]
      }
    },
    {
      "type": "Feature",
      "properties": {
        "norad_id": 38116,
        "name": "FENGYUN 1C DEB",
        "group": "fengyun-1c-debris",
        "lat": -22.701101429294344,
        "lon": -161.55502572723591,
        "alt_km": 804.7210708328257,
        "timestamp": "2025-12-09T07:41:33.498534+00:00",
        "meta_object_name": "FENGYUN 1C DEB",
        "meta_object_id": "1999-025EPM",
        "meta_epoch": "2025-12-08T08:47:29.846688",
        "meta_mean_motion": 14.17004131,
        "meta_eccentricity": 0.00723814,
        "meta_inclination": 98.7133,
        "meta_ra_of_asc_node": 21.1884,
        "meta_arg_of_pericenter": 159.0546,
        "meta_mean_anomaly": 218.3187,
        "meta_ephemeris_type": 0,
        "meta_classification_type": "U",
        "meta_norad_cat_id": 38116,
        "meta_element_set_no": 999,
        "meta_rev_at_epoch": 64423,
        "meta_bstar": 0.00087094708,
        "meta_mean_motion_dot": 1.753e-05,
        "meta_mean_motion_ddot": 0,
        "tle_line1": "1 38116U 99025EPM 25342.36631767  .00001753  00000+0  87095-3 0  9996",
        "tle_line2": "2 38116  98.7133  21.1884 0072381 159.0546 218.3187 14.17004131644238"
      },
      "geometry": {
        "type": "Point",
        "coordinates": [
          -161.55502572723591,
          -22.701101429294344
        ]
      }
    },
    {
      "type": "Feature",
      "properties": {
        "norad_id": 38121,
        "name": "FENGYUN 1C DEB",
        "group": "fengyun-1c-debris",
        "lat": 52.61292121272615,
        "lon": 122.5535863871126,
        "alt_km": 795.4202103892931,
        "timestamp": "2025-12-09T07:41:33.498544+00:00",
        "meta_object_name": "FENGYUN 1C DEB",
        "meta_object_id": "1999-025EPS",
        "meta_epoch": "2025-12-08T16:14:11.802336",
        "meta_mean_motion": 14.21730691,
        "meta_eccentricity": 0.02065692,
        "meta_inclination": 99.1162,
        "meta_ra_of_asc_node": 134.0169,
        "meta_arg_of_pericenter": 139.2836,
        "meta_mean_anomaly": 222.399,
        "meta_ephemeris_type": 0,
        "meta_classification_type": "U",
        "meta_norad_cat_id": 38121,
        "meta_element_set_no": 999,
        "meta_rev_at_epoch": 83862,
        "meta_bstar": 0.0018514385,
        "meta_mean_motion_dot": 5.011e-05,
        "meta_mean_motion_ddot": 0,
        "tle_line1": "1 38121U 99025EPS 25342.67652549  .00005011  00000+0  18514-2 0  9997",
        "tle_line2": "2 38121  99.1162 134.0169 0206569 139.2836 222.3990 14.21730691838627"
      },
      "geometry": {
        "type": "Point",
        "coordinates": [
          122.5535863871126,
          52.61292121272615
        ]
      }
    },
    {
      "type": "Feature",
      "properties": {
        "norad_id": 38122,
        "name": "FENGYUN 1C DEB",
        "group": "fengyun-1c-debris",
        "lat": 81.30376059953842,
        "lon": -121.21111489420119,
        "alt_km": 696.1896038643608,
        "timestamp": "2025-12-09T07:41:33.498554+00:00",
        "meta_object_name": "FENGYUN 1C DEB",
        "meta_object_id": "1999-025EPT",
        "meta_epoch": "2025-12-08T17:56:21.579072",
        "meta_mean_motion": 14.42629891,
        "meta_eccentricity": 0.02276377,
        "meta_inclination": 98.3144,
        "meta_ra_of_asc_node": 345.2742,
        "meta_arg_of_pericenter": 168.9943,
        "meta_mean_anomaly": 191.635,
        "meta_ephemeris_type": 0,
        "meta_classification_type": "U",
        "meta_norad_cat_id": 38122,
        "meta_element_set_no": 999,
        "meta_rev_at_epoch": 67681,
        "meta_bstar": 0.00073738447,
        "meta_mean_motion_dot": 3.3e-05,
        "meta_mean_motion_ddot": 0,
        "tle_line1": "1 38122U 99025EPT 25342.74747198  .00003300  00000+0  73738-3 0  9990",
        "tle_line2": "2 38122  98.3144 345.2742 0227637 168.9943 191.6350 14.42629891676810"
      },
      "geometry": {
        "type": "Point",
        "coordinates": [
          -121.21111489420119,
          81.30376059953842
        ]
      }
    },
    {
      "type": "Feature",
      "properties": {
        "norad_id": 38124,
        "name": "FENGYUN 1C DEB",
        "group": "fengyun-1c-debris",
        "lat": -14.016505064717604,
        "lon": 114.7040125211292,
        "alt_km": 1240.6587106068355,
        "timestamp": "2025-12-09T07:41:33.498564+00:00",
        "meta_object_name": "FENGYUN 1C DEB",
        "meta_object_id": "1999-025EPV",
        "meta_epoch": "2025-11-17T02:51:17.993664",
        "meta_mean_motion": 13.40908773,
        "meta_eccentricity": 0.03570409,
        "meta_inclination": 97.805,
        "meta_ra_of_asc_node": 279.4801,
        "meta_arg_of_pericenter": 12.4947,
        "meta_mean_anomaly": 348.4759,
        "meta_ephemeris_type": 0,
        "meta_classification_type": "U",
        "meta_norad_cat_id": 38124,
        "meta_element_set_no": 999,
        "meta_rev_at_epoch": 54238,
        "meta_bstar": 0.00079426358,
        "meta_mean_motion_dot": 6.08e-06,
        "meta_mean_motion_ddot": 0,
        "tle_line1": "1 38124U 99025EPV 25321.11895826  .00000608  00000+0  79426-3 0  9990",
        "tle_line2": "2 38124  97.8050 279.4801 0357040  12.4947 348.4759 13.40908773542380"
      },
      "geometry": {
        "type": "Point",
        "coordinates": [
          114.7040125211292,
          -14.016505064717604
        ]
      }
    },
    {
      "type": "Feature",
      "properties": {
        "norad_id": 38130,
        "name": "FENGYUN 1C DEB",
        "group": "fengyun-1c-debris",
        "lat": 11.04918319989059,
        "lon": -142.95991540041877,
        "alt_km": 908.4875527092072,
        "timestamp": "2025-12-09T07:41:33.498576+00:00",
        "meta_object_name": "FENGYUN 1C DEB",
        "meta_object_id": "1999-025EQB",
        "meta_epoch": "2025-11-28T09:19:02.490528",
        "meta_mean_motion": 13.7720595,
        "meta_eccentricity": 0.02085156,
        "meta_inclination": 98.6035,
        "meta_ra_of_asc_node": 25.4413,
        "meta_arg_of_pericenter": 263.5047,
        "meta_mean_anomaly": 94.2329,
        "meta_ephemeris_type": 0,
        "meta_classification_type": "U",
        "meta_norad_cat_id": 38130,
        "meta_element_set_no": 999,
        "meta_rev_at_epoch": 69085,
        "meta_bstar": 0.0016964005,
        "meta_mean_motion_dot": 1.933e-05,
        "meta_mean_motion_ddot": 0,
        "tle_line1": "1 38130U 99025EQB 25332.38822327  .00001933  00000+0  16964-2 0  9993",
        "tle_line2": "2 38130  98.6035  25.4413 0208515 263.5047  94.2329 13.77205950690851"
      },
      "geometry": {
        "type": "Point",
        "coordinates": [
          -142.95991540041877,
          11.04918319989059
        ]
      }
    },
    {
      "type": "Feature",
      "properties": {
        "norad_id": 38135,
        "name": "FENGYUN 1C DEB",
        "group": "fengyun-1c-debris",
        "lat": -48.572666186295955,
        "lon": 50.090520002551884,
        "alt_km": 916.5493691624733,
        "timestamp": "2025-12-09T07:41:33.498587+00:00",
        "meta_object_name": "FENGYUN 1C DEB",
        "meta_object_id": "1999-025EQG",
        "meta_epoch": "2025-12-04T09:59:10.811040",
        "meta_mean_motion": 14.2524882,
        "meta_eccentricity": 0.0223375,
        "meta_inclination": 98.6606,
        "meta_ra_of_asc_node": 35.2993,
        "meta_arg_of_pericenter": 95.5388,
        "meta_mean_anomaly": 267.1312,
        "meta_ephemeris_type": 0,
        "meta_classification_type": "U",
        "meta_norad_cat_id": 38135,
        "meta_element_set_no": 999,
        "meta_rev_at_epoch": 60922,
        "meta_bstar": 0.00083169,
        "meta_mean_motion_dot": 2.494e-05,
        "meta_mean_motion_ddot": 0,
        "tle_line1": "1 38135U 99025EQG 25338.41609735  .00002494  00000+0  83169-3 0  9999",
        "tle_line2": "2 38135  98.6606  35.2993 0223375  95.5388 267.1312 14.25248820609225"
      },
      "geometry": {
        "type": "Point",
        "coordinates": [
          50.090520002551884,
          -48.572666186295955
        ]
      }
    }
  ]
}